HST                     
1 20580U 90037B   26165.14417512  .00006344  00000+0  19999-3 0  9995
2 20580  28.4715 101.3706 0001912 110.8714 249.2086 15.30716351788104
POLAR                   
1 23802U 96013A   26164.95607377  .00000147  00000+0  00000+0 0  9997
2 23802  79.8496 227.0900 6467296 209.1909  89.6364  1.29846123144810
SWAS                    
1 25560U 98071A   26165.23274746  .00003158  00000+0  20234-3 0  9998
2 25560  69.8959 235.1383 0008710 263.2095  96.8079 15.09611727496821
CXO                     
1 25867U 99040B   26166.73124906  .00000579  00000+0  00000+0 0  9992
2 25867  56.1776 116.6293 7842889 310.3072   0.0447  0.37804362 17312
XMM-NEWTON              
1 25989U 99066A   26167.35230823  .00000036  00000+0  00000+0 0  9998
2 25989  64.4922 282.9960 4674559  64.9442   0.1261  0.50126459 23004
TERRA                   
1 25994U 99068A   26165.29058162  .00000350  00000+0  80307-4 0  9993
2 25994  97.9457 214.9516 0001359 200.2607 285.8192 14.61101023409181
CLUSTER II-FM7 (SAMBA)  
1 26410U 00041A   26165.90943278  .00008926  00000+0  00000+0 0  9993
2 26410 149.9112  50.5199 9050263 267.6271 359.8755  0.44879327 20296
CLUSTER II-FM8 (TANGO)  
1 26464U 00045B   26163.93586103  .00006615  00000+0  00000+0 0  9990
2 26464 150.1475  51.1959 9055540 268.1324   3.0125  0.44415453 20295
ODIN                    
1 26702U 01007A   26165.10891375  .00169748  00000+0  11319-2 0  9990
2 26702  97.3841 205.8567 0006678 145.7671 214.4025 15.74845621388912
TIMED                   
1 26998U 01055B   26165.26506828  .00001092  00000+0  10270-3 0  9996
2 26998  74.0674 240.9020 0000951 340.9686  19.1463 14.95289724330384
CORIOLIS                
1 27640U 03001A   26165.30811305  .00000081  00000+0  58610-4 0  9996
2 27640  98.7125 172.2368 0013221 217.5004 142.5251 14.19944058213810
SORCE                   
1 27651U 03004A   26165.01808587  .00002811  00000+0  21181-3 0  9992
2 27651  39.9912 279.7591 0016874  25.2759 334.8857 15.03698606271420
MOST                    
1 27843U 03031D   26164.97303430  .00000061  00000+0  48237-4 0  9993
2 27843  98.7045 172.7439 0008695 260.9747  99.0446 14.21321896190251
SCISAT 1                
1 27858U 03036A   26165.18679912  .00000444  00000+0  61331-4 0  9994
2 27858  73.9285 177.3043 0008614 246.8450 113.1819 14.81444994231007
SWIFT                   
1 28485U 04047A   26164.81561905  .00048901  00000+0  41135-3 0  9994
2 28485  20.5521 210.9067 0001739 231.5121 128.5169 15.68026337186338
HINODE (SOLAR-B)        
1 29479U 06041A   26165.32383155  .00000611  00000+0  11344-3 0  9995
2 29479  98.0549 181.5186 0016102 299.6814  60.2788 14.68619533 54452
SHIJIAN-6 02A (SJ-6 02A)
1 29505U 06046A   26165.25511510  .00007140  00000+0  36556-3 0  9996
2 29505  97.6364 206.2996 0004253 133.0001 227.1589 15.16913510 71828
SHIJIAN-6 02B (SJ-6 02B)
1 29506U 06046B   26165.28056617  .00001504  00000+0  12116-3 0  9996
2 29506  97.7162 194.3572 0015236  68.8221 291.4630 15.01371057 70306
FGRST (GLAST)           
1 33053U 08029A   26164.56178241  .00003032  00000+0  10830-3 0  9998
2 33053  25.5812 229.6566 0007579 284.3081  75.6615 15.23932931995280
SDO                     
1 36395U 10005A   26164.30669706 -.00000088  00000+0  00000+0 0  9993
2 36395  34.6434  86.4016 0001673  51.3791 132.2019  1.00270114 60022
CRYOSAT 2               
1 36508U 10013A   26165.25577932  .00000169  00000+0  41354-4 0  9993
2 36508  92.0352 276.5890 0002177  88.2975 271.8482 14.51898198857655
X-SAT                   
1 37389U 11015C   26165.27690118  .00000222  00000+0  11198-3 0  9990
2 37389  98.3502 142.4386 0014172 357.1641   2.9457 14.25205962787262
GCOM-W1 (SHIZUKU)       
1 38337U 12025A   26165.29733316  .00000407  00000+0  10024-3 0  9998
2 38337  98.2022 105.8968 0001817  77.1168  43.3281 14.57122236748613
NUSTAR                  
1 38358U 12031A   26165.33336806  .00015133  00000+0  87963-3 0  9994
2 38358   6.0283  55.5335 0006432  61.9526 323.1616 15.08780104  1308
NEOSSAT                 
1 39089U 13009D   26165.21299382  .00000133  00000+0  60610-4 0  9991
2 39089  98.4176 345.3164 0009822 253.7326 106.2780 14.35825458696315
BRITE-AUSTRIA           
1 39091U 13009F   26165.28275201  .00000153  00000+0  66530-4 0  9994
2 39091  98.3993 344.7904 0009050 246.2651 113.7587 14.36541037696632
IRIS                    
1 39197U 13033A   26165.26921510  .00000951  00000+0  11508-3 0  9997
2 39197  97.9331   4.5554 0023742 331.6959  28.2964 14.85880114699948
HISAKI (SPRINT-A)       
1 39253U 13049A   26164.88813108  .00000139  00000+0  10130-3 0  9995
2 39253  29.7190 236.7863 0136882 350.1099   9.6792 13.55544473630971
CASSIOPE                
1 39265U 13055A   26165.20957764  .00048319 -44833-6  52910-3 0  9993
2 39265  80.9157  70.3372 0293790  72.4456 290.8642 15.24926883667218
STSAT-3                 
1 39422U 13066G   26165.24957005  .00003367  00000+0  25613-3 0  9996
2 39422  97.6215 135.1850 0011179  52.6245 307.5996 15.02743154683769
SWARM B                 
1 39451U 13067A   26165.25328222  .00003238  00000+0  11542-3 0  9996
2 39451  87.7433 343.2083 0003350  87.6268 272.5365 15.28535207682797
